[{"OBJECT_NAME":"YUNHAI-2 01A","OBJECT_ID":"2018-112A","EPOCH":"2026-03-09T22:34:33.618432","MEAN_MOTION":14.28975171,"ECCENTRICITY":4.652e-5,"INCLINATION":50.0087,"RA_OF_ASC_NODE":105.4873,"ARG_OF_PERICENTER":228.8508,"MEAN_ANOMALY":131.2367,"EPHEMERIS_TYPE":0,"CLASSIFICATION_TYPE":"U","NORAD_CAT_ID":43909,"ELEMENT_SET_NO":999,"REV_AT_EPOCH":37689,"BSTAR":7.7064636e-5,"MEAN_MOTION_DOT":3.5e-7,"MEAN_MOTION_DDOT":0},{"OBJECT_NAME":"NOAA 16 DEB","OBJECT_ID":"2000-055MG","EPOCH":"2026-03-08T06:44:56.423904","MEAN_MOTION":14.33750039,"ECCENTRICITY":0.00256971,"INCLINATION":98.8533,"RA_OF_ASC_NODE":190.8698,"ARG_OF_PERICENTER":213.2778,"MEAN_ANOMALY":146.6791,"EPHEMERIS_TYPE":0,"CLASSIFICATION_TYPE":"U","NORAD_CAT_ID":41508,"ELEMENT_SET_NO":999,"REV_AT_EPOCH":51218,"BSTAR":0.0026780158,"MEAN_MOTION_DOT":7.428e-5,"MEAN_MOTION_DDOT":0}]
